TIANWANG 1C (TW-1C)     
1 40926U 15051B   17240.38961806  .00007790  00000-0  17467-3 0  9999
2 40926  97.2234 279.4111 0009372 266.5772 289.1872 15.43642220108051
TIANWANG 1B (TW-1B)     
1 40927U 15051C   17240.43413852  .00008036  00000-0  18703-3 0  9997
2 40927  97.2329 279.4411 0008964 277.7865 206.4804 15.42521398108006
TIANWANG 1A (TW-1A)     
1 40928U 15051D   17240.39167149  .00003633  00000-0  10389-3 0  9998
2 40928  97.2214 274.9074 0010829 304.0401 181.2063 15.36562633107789
LAPAN-A2 (IO-86)        
1 40931U 15052B   17240.45184880  .00000715  00000-0  10508-4 0  9993
2 40931   6.0003  77.4531 0013245 188.7180 171.2824 14.76538200103660
LQSAT                   
1 40958U 15057A   17240.39060438  .00000071  00000-0  18863-4 0  9999
2 40958  97.9738 314.4333 0017758 190.5617 169.5221 14.72979898101742
CHUBUSAT-2              
1 41338U 16012B   17240.49816840  .00000430  00000-0  27084-4 0  9995
2 41338  31.0044  12.9958 0013863  54.7270 305.4661 14.99780507 83852
CHUBUSAT-3              
1 41339U 16012C   17240.41655582  .00000441  00000-0  27826-4 0  9998
2 41339  31.0123  12.5443 0013752  60.7110 299.4902 14.99983205 83820
OUFTI-1                 
1 41458U 16025C   17240.19893966  .00003379  00000-0  18202-3 0  9999
2 41458  98.1781 281.8912 0174290  49.3048 312.3172 15.03434470 73392
E-ST@R-II               
1 41459U 16025D   17240.56056069  .00002040  00000-0  11170-3 0  9997
2 41459  98.1815 282.2136 0175865  48.5066 313.1097 15.03262108 73442
AAUSAT 4                
1 41460U 16025E   17240.51355333  .00003587  00000-0  19289-3 0  9996
2 41460  98.1739 282.3083 0167938  46.6729 314.8315 15.04244244 73463
NUSAT 1 (LO-87)         
1 41557U 16033B   17240.48325920  .00001880  00000-0  72982-4 0  9991
2 41557  97.4598 319.9963 0015799 110.5651 249.7284 15.27253363 69464
BEESAT-4                
1 41619U 16040W   17239.84170217  .00001622  00000-0  76256-4 0  9995
2 41619  97.4559 301.5229 0012383 170.1508 189.9973 15.20966989 53484
PRATHAM                 
1 41783U 16059A   17239.84469652  .00000042  00000-0  17726-4 0  9993
2 41783  98.1607 300.4535 0032388 297.1718  62.6183 14.62852338 49073
ALSAT 1N                
1 41789U 16059G   17240.45735179  .00000111  00000-0  30337-4 0  9998
2 41789  98.1609 301.7001 0027250 289.5656  70.2602 14.64067733 49183
NAYIF-1 (EO-88)         
1 42017U 17008BX  17239.84847063  .00001782  00000-0  78361-4 0  9999
2 42017  97.4891 301.1518 0005845 344.5725  15.5333 15.23209176 29394
LILACSAT-1              
1 42725U 98067ME  17240.47975714  .00015079  00000-0  21402-3 0  9992
2 42725  51.6405  36.9244 0006557 218.2140 141.8388 15.56628578 14733
MAX VALIER SAT          
1 42778U 17036P   17239.82235308  .00001242  00000-0  59963-4 0  9993
2 42778  97.4457 298.8006 0013400  24.2464 335.9399 15.20472495  9918
